{"fetched_at":"2026-03-29T16:36:15Z","count":15609,"tles":[{"name":"STARLINK-35771","line1":"1 67171U 25303J   26087.66759996  .00040549  00000+0  14736-2 0  9999","line2":"2 67171  42.9999 203.8769 0001583 274.6889  85.3781 15.27609369 15637","category":"Starlink"}]}